[{"OBJECT_NAME":"STARLINK-30992","OBJECT_ID":"2023-191S","EPOCH":"2026-03-09T11:49:24.138336","MEAN_MOTION":15.27227181,"ECCENTRICITY":0.00015435,"INCLINATION":43.0031,"RA_OF_ASC_NODE":104.3339,"ARG_OF_PERICENTER":249.8077,"MEAN_ANOMALY":110.2608,"EPHEMERIS_TYPE":0,"CLASSIFICATION_TYPE":"U","NORAD_CAT_ID":58524,"ELEMENT_SET_NO":999,"REV_AT_EPOCH":12544,"BSTAR":0.0021248429,"MEAN_MOTION_DOT":0.00058041,"MEAN_MOTION_DDOT":0},{"OBJECT_NAME":"YAOGAN-43 01F","OBJECT_ID":"2024-148F","EPOCH":"2026-03-10T00:23:08.877408","MEAN_MOTION":15.29824616,"ECCENTRICITY":0.00057048,"INCLINATION":34.9925,"RA_OF_ASC_NODE":59.8891,"ARG_OF_PERICENTER":18.4862,"MEAN_ANOMALY":341.6062,"EPHEMERIS_TYPE":0,"CLASSIFICATION_TYPE":"U","NORAD_CAT_ID":60463,"ELEMENT_SET_NO":999,"REV_AT_EPOCH":8707,"BSTAR":0.00058388219,"MEAN_MOTION_DOT":0.00017308,"MEAN_MOTION_DDOT":0}]
